NORAD_CAT_ID,OBJECT_NAME,OBJECT_TYPE,EPOCH,MEAN_MOTION,ECCENTRICITY,INCLINATION,RA_OF_ASC_NODE,ARG_OF_PERICENTER,MEAN_ANOMALY,BSTAR,MEAN_MOTION_DOT,MEAN_MOTION_DDOT,TLE_LINE0,TLE_LINE1,TLE_LINE2,SEMIMAJOR_AXIS,PERIOD,APOGEE,PERIGEE,DECAYED
51984.0,STARLINK-3664,PAYLOAD,2024-07-27 21:56:14,15.08836241,0.0001354,53.2166,166.8156,99.3787,260.7358,4.3759e-05,4.09e-06,0.0,0 STARLINK-3664,1 51984U 22025AE  24209.91405553  .00000409  00000-0  43759-4 0  9992,2 51984  53.2166 166.8156 0001354  99.3787 260.7358 15.08836241132028,6917.892,95.438,540.694,538.82,0.0
51984.0,STARLINK-3664,PAYLOAD,2024-07-28 04:17:47,15.0883113,0.0001295,53.2165,165.625,94.2746,265.8394,-1.2942e-05,-4.94e-06,0.0,0 STARLINK-3664,1 51984U 22025AE  24210.17902096 -.00000494  00000-0 -12942-4 0  9992,2 51984  53.2165 165.6250 0001295  94.2746 265.8394 15.08831130133166,6917.908,95.438,540.668,538.877,0.0
51984.0,STARLINK-3664,PAYLOAD,2024-07-28 13:50:05,15.08836195,0.0001292,53.2167,163.8404,90.6921,269.4219,2.3362e-05,8.4e-07,0.0,0 STARLINK-3664,1 51984U 22025AE  24210.57645799  .00000084  00000-0  23362-4 0  9991,2 51984  53.2167 163.8404 0001292  90.6921 269.4219 15.08836195133220,6917.892,95.438,540.651,538.863,0.0
51984.0,STARLINK-3664,PAYLOAD,2024-07-29 13:40:52,15.08845147,0.0001451,53.2175,159.3803,85.1316,274.9842,0.00011744,1.582e-05,0.0,0 STARLINK-3664,1 51984U 22025AE  24211.57005370  .00001582  00000-0  11744-3 0  9991,2 51984  53.2175 159.3803 0001451  85.1316 274.9842 15.08845147132270,6917.865,95.437,540.733,538.726,0.0
51984.0,STARLINK-3664,PAYLOAD,2024-07-29 20:02:25,15.08835453,0.0001625,53.2173,158.1928,87.8873,272.2305,0.00013046,1.789e-05,0.0,0 STARLINK-3664,1 51984U 22025AE  24211.83501976  .00001789  00000-0  13046-3 0  9999,2 51984  53.2173 158.1928 0001625  87.8873 272.2305 15.08835453133414,6917.894,95.438,540.883,538.635,0.0
51984.0,STARLINK-3664,PAYLOAD,2024-07-30 13:31:39,15.08848982,0.0001392,53.2173,154.9185,74.8848,285.2298,0.00015071,2.112e-05,0.0,0 STARLINK-3664,1 51984U 22025AE  24212.56365142  .00002112  00000-0  15071-3 0  9994,2 51984  53.2173 154.9185 0001392  74.8848 285.2298 15.08848982132428,6917.853,95.437,540.681,538.755,0.0
51984.0,STARLINK-3664,PAYLOAD,2024-07-30 19:53:14,15.08819658,0.0001287,53.2184,153.7295,82.0179,278.0959,-2.9771e-05,-7.61e-06,0.0,0 STARLINK-3664,1 51984U 22025AE  24212.82863560 -.00000761  00000-0 -29771-4 0  9993,2 51984  53.2184 153.7295 0001287  82.0179 278.0959 15.08819658133568,6917.943,95.439,540.698,538.917,0.0
51984.0,STARLINK-3664,PAYLOAD,2024-07-31 02:14:45,15.08834291,0.0001151,53.2152,152.5413,90.0718,270.0406,-3.7062e-06,-3.47e-06,0.0,0 STARLINK-3664,1 51984U 22025AE  24213.09358718 -.00000347  00000-0 -37062-5 0  9990,2 51984  53.2152 152.5413 0001151  90.0718 270.0406 15.08834291133604,6917.898,95.438,540.559,538.967,0.0
51984.0,STARLINK-3664,PAYLOAD,2024-07-31 13:22:27,15.08845616,0.0001586,53.2181,150.4581,88.9237,271.1937,4.035e-05,3.54e-06,0.0,0 STARLINK-3664,1 51984U 22025AE  24213.55725951  .00000354  00000-0  40350-4 0  9997,2 51984  53.2181 150.4581 0001586  88.9237 271.1937 15.08845616132572,6917.863,95.437,540.825,538.631,0.0
51984.0,STARLINK-3664,PAYLOAD,2024-08-01 02:05:32,15.08830265,0.0001217,53.2175,148.0766,105.8928,254.2198,0.00018778,2.701e-05,0.0,0 STARLINK-3664,1 51984U 22025AE  24214.08718461  .00002701  00000-0  18778-3 0  9990,2 51984  53.2175 148.0766 0001217 105.8928 254.2198 15.08830265133756,6917.91,95.438,540.617,538.933,0.0
51984.0,STARLINK-3664,PAYLOAD,2024-08-01 22:45:32,15.08841424,0.0001518,53.2154,144.2143,90.8872,269.2294,0.00015326,2.152e-05,0.0,0 STARLINK-3664,1 51984U 22025AE  24214.94829657  .00002152  00000-0  15326-3 0  9991,2 51984  53.2154 144.2143 0001518  90.8872 269.2294 15.08841424132789,6917.876,95.437,540.791,538.691,0.0
51984.0,STARLINK-3664,PAYLOAD,2024-08-02 01:56:19,15.08838791,0.0001139,53.2155,143.6217,76.7338,283.3781,0.00015724,2.215e-05,0.0,0 STARLINK-3664,1 51984U 22025AE  24215.08077865  .00002215  00000-0  15724-3 0  9995,2 51984  53.2155 143.6217 0001139  76.7338 283.3781 15.08838791133900,6917.884,95.438,540.537,538.961,0.0
51984.0,STARLINK-3664,PAYLOAD,2024-08-02 22:36:20,15.08834726,0.0001391,53.216,139.7516,95.135,264.9801,4.4459e-05,4.2e-06,0.0,0 STARLINK-3664,1 51984U 22025AE  24215.94190411  .00000420  00000-0  44459-4 0  9997,2 51984  53.2160 139.7516 0001391  95.1350 264.9801 15.08834726132937,6917.897,95.438,540.724,538.799,0.0
51984.0,STARLINK-3664,PAYLOAD,2024-08-03 01:47:06,15.08833482,0.0001473,53.2169,139.1536,102.2639,257.8518,7.1194e-06,-1.75e-06,0.0,0 STARLINK-3664,1 51984U 22025AE  24216.07438551 -.00000175  00000-0  71194-5 0  9997,2 51984  53.2169 139.1536 0001473 102.2639 257.8518 15.08833482134052,6917.9,95.438,540.784,538.746,0.0
51984.0,STARLINK-3664,PAYLOAD,2024-08-03 11:19:25,15.08844262,0.0001309,53.2172,137.377,100.6094,259.5045,3.448e-05,2.61e-06,0.0,0 STARLINK-3664,1 51984U 22025AE  24216.47181879  .00000261  00000-0  34480-4 0  9990,2 51984  53.2172 137.3770 0001309 100.6094 259.5045 15.08844262134110,6917.867,95.437,540.638,538.827,0.0
51984.0,STARLINK-3664,PAYLOAD,2024-08-03 19:16:21,15.08836162,0.0001896,53.2162,135.8916,99.5842,260.5364,-2.1205e-08,-2.88e-06,0.0,0 STARLINK-3664,1 51984U 22025AE  24216.80302697 -.00000288  00000-0 -21205-7 0  9995,2 51984  53.2162 135.8916 0001896  99.5842 260.5364 15.08836162134163,6917.892,95.438,541.069,538.445,0.0
51984.0,STARLINK-3664,PAYLOAD,2024-08-03 22:27:08,15.08831323,0.0001512,53.2185,135.2994,95.0569,265.0596,-1.3405e-05,-5.01e-06,0.0,0 STARLINK-3664,1 51984U 22025AE  24216.93550976 -.00000501  00000-0 -13405-4 0  9992,2 51984  53.2185 135.2994 0001512  95.0569 265.0596 15.08831323133081,6917.907,95.438,540.818,538.726,0.0
51984.0,STARLINK-3664,PAYLOAD,2024-08-04 01:37:54,15.08835531,0.0001498,53.2172,134.7013,96.9021,263.2141,-2.6691e-05,-7.13e-06,0.0,0 STARLINK-3664,1 51984U 22025AE  24217.06798840 -.00000713  00000-0 -26691-4 0  9997,2 51984  53.2172 134.7013 0001498  96.9021 263.2141 15.08835531133103,6917.894,95.438,540.795,538.723,0.0
51984.0,STARLINK-3664,PAYLOAD,2024-08-04 19:07:09,15.08822979,0.0001378,53.2173,131.4299,95.3948,264.7201,-2.1913e-05,-6.36e-06,0.0,0 STARLINK-3664,1 51984U 22025AE  24217.79663648 -.00000636  00000-0 -21913-4 0  9990,2 51984  53.2173 131.4299 0001378  95.3948 264.7201 15.08822979134311,6917.932,95.439,540.751,538.844,0.0
51984.0,STARLINK-3664,PAYLOAD,2024-08-04 22:17:55,15.0882508,0.0001351,53.2166,130.8319,81.5079,278.6066,2.5578e-05,1.19e-06,0.0,0 STARLINK-3664,1 51984U 22025AE  24217.92911467  .00000119  00000-0  25578-4 0  9995,2 51984  53.2166 130.8319 0001351  81.5079 278.6066 15.08825080133231,6917.926,95.438,540.726,538.856,0.0
51984.0,STARLINK-3664,PAYLOAD,2024-08-05 03:04:03,15.08843751,0.0001389,53.2174,129.9425,96.6413,263.4737,0.00015236,2.138e-05,0.0,0 STARLINK-3664,1 51984U 22025AE  24218.12782041  .00002138  00000-0  15236-3 0  9994,2 51984  53.2174 129.9425 0001389  96.6413 263.4737 15.08843751134364,6917.869,95.437,540.695,538.773,0.0
51984.0,STARLINK-3664,PAYLOAD,2024-08-05 11:00:58,15.08856427,0.0001318,53.2175,128.4523,67.4707,292.6425,0.00027519,4.096e-05,0.0,0 STARLINK-3664,1 51984U 22025AE  24218.45900815  .00004096  00000-0  27519-3 0  9993,2 51984  53.2175 128.4523 0001318  67.4707 292.6425 15.08856427134410,6917.83,95.437,540.607,538.783,0.0
51984.0,STARLINK-3664,PAYLOAD,2024-08-05 22:08:44,15.08800608,0.0001719,53.2159,126.3717,74.7681,285.3501,-0.00014103,-2.529e-05,0.0,0 STARLINK-3664,1 51984U 22025AE  24218.92274043 -.00002529  00000-0 -14103-3 0  9998,2 51984  53.2159 126.3717 0001719  74.7681 285.3501 15.08800608133380,6918.001,95.44,541.055,538.677,0.0
51984.0,STARLINK-3664,PAYLOAD,2024-08-06 02:54:54,15.08809499,0.0001621,53.2174,125.4788,76.9317,283.1856,-0.0001398,-2.51e-05,0.0,0 STARLINK-3664,1 51984U 22025AE  24219.12145907 -.00002510  00000-0 -13980-3 0  9999,2 51984  53.2174 125.4788 0001621  76.9317 283.1856 15.08809499134519,6917.974,95.439,540.96,538.717,0.0
51984.0,STARLINK-3664,PAYLOAD,2024-08-06 17:13:21,15.08818229,0.0001176,53.2166,122.8027,67.2318,292.8798,0.00012793,1.748e-05,0.0,0 STARLINK-3664,1 51984U 22025AE  24219.71760881  .00001748  00000-0  12793-3 0  9999,2 51984  53.2166 122.8027 0001176  67.2318 292.8798 15.08818229134609,6917.947,95.439,540.625,538.998,0.0
51984.0,STARLINK-3664,PAYLOAD,2024-08-06 21:59:30,15.08831582,0.0001574,53.2165,121.9176,71.4744,288.6419,0.0001272,1.737e-05,0.0,0 STARLINK-3664,1 51984U 22025AE  24219.91632257  .00001737  00000-0  12720-3 0  9994,2 51984  53.2165 121.9176 0001574  71.4744 288.6419 15.08831582133536,6917.906,95.438,540.86,538.682,0.0
51984.0,STARLINK-3664,PAYLOAD,2024-08-07 02:45:38,15.08857352,0.0001429,53.2166,121.0187,73.5555,286.5594,0.00017269,2.463e-05,0.0,0 STARLINK-3664,1 51984U 22025AE  24220.11502531  .00002463  00000-0  17269-3 0  9999,2 51984  53.2166 121.0187 0001429  73.5555 286.5594 15.08857352134661,6917.827,95.436,540.681,538.704,0.0
51984.0,STARLINK-3664,PAYLOAD,2024-08-08 02:36:26,15.08837917,0.0001373,53.2162,116.5572,81.6168,278.4979,0.00030354,4.546e-05,0.0,0 STARLINK-3664,1 51984U 22025AE  24221.10863489  .00004546  00000-0  30354-3 0  9995,2 51984  53.2162 116.5572 0001373  81.6168 278.4979 15.08837917133719,6917.887,95.438,540.702,538.802,0.0
51984.0,STARLINK-3664,PAYLOAD,2024-08-08 23:16:26,15.08852539,0.0001188,53.2165,112.6906,119.3461,240.765,-6.3402e-05,-1.297e-05,0.0,0 STARLINK-3664,1 51984U 22025AE  24221.96974948 -.00001297  00000-0 -63402-4 0  9995,2 51984  53.2165 112.6906 0001188 119.3461 240.7650 15.08852539133848,6917.842,95.437,540.529,538.885,0.0
51984.0,STARLINK-3664,PAYLOAD,2024-08-09 10:24:07,15.0885962,0.0001676,53.2179,110.609,126.1238,233.991,-6.0415e-05,-1.25e-05,0.0,0 STARLINK-3664,1 51984U 22025AE  24222.43342035 -.00001250  00000-0 -60415-4 0  9994,2 51984  53.2179 110.6090 0001676 126.1238 233.9910 15.08859620135017,6917.82,95.436,540.845,538.526,0.0
